GLOBALSTAR M079 [+]     
1 37188U 10054A   23192.92772277 -.00000095  00000+0  47623-4 0  9997
2 37188  52.0033 129.7537 0000306  51.6320 337.2535 12.62266297587946
GLOBALSTAR M074 [+]     
1 37189U 10054B   23193.53978222 -.00000100  00000+0  19588-4 0  9990
2 37189  52.0010 127.3232 0000486  31.0634 140.0786 12.62268227588019
GLOBALSTAR M076 [+]     
1 37190U 10054C   23193.32172257 -.00000097  00000+0  35061-4 0  9992
2 37190  52.0022 128.0925 0000218 306.3851 194.0735 12.62275990587997
GLOBALSTAR M077 [+]     
1 37191U 10054D   23191.49427003 -.00000094  00000+0  52133-4 0  9997
2 37191  52.0077  90.3096 0000645  49.0134 122.3150 12.62269271588516
GLOBALSTAR M075 [+]     
1 37192U 10054E   23192.70818534 -.00000088  00000+0  87735-4 0  9995
2 37192  51.9923 172.6093 0000120 145.6041  25.9677 12.62269553587158
GLOBALSTAR M073 [+]     
1 37193U 10054F   23193.42091514 -.00000099  00000+0  23974-4 0  9994
2 37193  52.0068  83.7213 0000725  59.1039 112.2868 12.62265889588751
GLOBALSTAR M083 [+]     
1 37739U 11033A   23193.27571192 -.00000083  00000+0  11392-3 0  9999
2 37739  51.9871  33.8590 0001087  84.5563  87.1023 12.62267273558060
GLOBALSTAR M088 [+]     
1 37740U 11033B   23193.37946799 -.00000096  00000+0  40754-4 0  9990
2 37740  51.9742 299.6298 0000965 130.0326 273.5359 12.62263873553558
GLOBALSTAR M091 [+]     
1 37741U 11033C   23192.99994334 -.00000100  00000+0  20127-4 0  9994
2 37741  51.9988 263.0785 0000820 140.3645 277.2830 12.62264808554268
GLOBALSTAR M085 [+]     
1 37742U 11033D   23192.77413378 -.00000095  00000+0  49273-4 0  9991
2 37742  51.9838 215.4281 0000383 143.3112  28.3376 12.62265605554975
GLOBALSTAR M081 [+]     
1 37743U 11033E   23192.80064155 -.00000087  00000+0  94651-4 0  9992
2 37743  51.9930 217.7003 0000484 171.8316 359.2405 12.62269497555018
GLOBALSTAR M089 [+]     
1 37744U 11033F   23193.20127116 -.00000086  00000+0  97979-4 0  9990
2 37744  51.9906 170.8387 0000231 309.2616  63.6992 12.62265396555781
GLOBALSTAR M084 [+]     
1 38040U 11080A   23193.53281464 -.00000100  00000+0  23481-4 0  9999
2 38040  52.0025  36.7438 0000656  68.0814 311.9945 12.62263781533838
GLOBALSTAR M080 [+]     
1 38041U 11080B   23192.98664234 -.00000095  00000+0  50864-4 0  9996
2 38041  52.0073  39.7644 0000505  72.4264 104.9420 12.62268106533749
GLOBALSTAR M082 [+]     
1 38042U 11080C   23193.15716369 -.00000101  00000+0  13713-4 0  9994
2 38042  52.0094 354.6187 0001482  92.2234  79.5511 12.62268951534507
GLOBALSTAR M092 [+]     
1 38043U 11080D   23193.20851616 -.00000108  00000+0 -24507-4 0  9997
2 38043  52.0089  84.8008 0000720  31.0594 134.1288 12.62270271533001
GLOBALSTAR M090 [+]     
1 38044U 11080E   23193.47007473 -.00000095  00000+0  50985-4 0  9994
2 38044  51.9907 348.3842 0001060 105.5936 289.1620 12.62265912534534
GLOBALSTAR M086 [+]     
1 38045U 11080F   23193.20971749 -.00000092  00000+0  68062-4 0  9994
2 38045  51.9917 349.6725 0001268 155.8404  15.5716 12.62268433534503
GLOBALSTAR M097 [+]     
1 39072U 13005A   23193.51552571 -.00000088  00000+0  87855-4 0  9992
2 39072  52.0038 262.5749 0000799 136.7972 223.2957 12.62269798481775
GLOBALSTAR M093 [+]     
1 39073U 13005B   23193.48877505 -.00000094  00000+0  51973-4 0  9995
2 39073  51.9798 257.0871 0000977 145.6894 214.4036 12.62267672481760
GLOBALSTAR M094 [+]     
1 39074U 13005C   23193.40964755 -.00000089  00000+0  81404-4 0  9998
2 39074  51.9934 171.0024 0000106 105.2028 254.8851 12.62266379483266
GLOBALSTAR M096 [+]     
1 39075U 13005D   23193.02698986 -.00000090  00000+0  74195-4 0  9998
2 39075  52.0044 220.1321 0000568 152.0541 208.0357 12.62269927482464
GLOBALSTAR M078 [+]     
1 39076U 13005E   23193.00025631 -.00000096  00000+0  44763-4 0  9992
2 39076  51.9889 305.6819 0001457  81.2373 278.8658 12.62267247480948
GLOBALSTAR M095 [+]     
1 39077U 13005F   23193.34386087 -.00000101  00000+0  13039-4 0  9994
2 39077  51.9811 302.1860 0001330 108.6900 251.4111 12.62267202480999
GLOBALSTAR M087 [+]     
1 52888U 22064A   23193.36927649 -.00000102  00000+0  49369-4 0  9997
2 52888  51.9772 316.7719 0009261 215.2325 144.7964 13.37548770 51912
